CAS500-2 RIDESHARE OBJE*
1 68999U 26100V   26129.83337963 -.00062693  00000+0 -55610-2 0  9998
2 68999  97.6976  27.0585 0016745  82.7237 259.7512 14.96417230  1308
