{
  "norad_id": 68999,
  "name": "CAS500-2 RIDESHARE OBJECT V",
  "history": [
    {
      "epoch": "2026-05-09T20:00:04.000032Z",
      "apogee_km": 589.6252875548525,
      "perigee_km": 566.3292608505471,
      "latitude_deg": -17.769764236990092,
      "longitude_deg": -138.13431654339522,
      "height_km": 587.0765438219428,
      "semi_major_axis_km": 6956.1142742027,
      "eccentricity": 0.0016745,
      "inclination_deg": 97.6976,
      "raan_deg": 27.0585,
      "arg_perigee_deg": 82.7237,
      "mean_anomaly_deg": 259.7512,
      "mean_motion_rev_day": 14.9641723
    }
  ]
}